$$SOE
2461295.500000000, A.D. 2026-Sep-12 00:00:00.0000, -1.688731468674875E+08, 3.055539635416073E+08, 1.911627671700628E+07,
2461302.500000000, A.D. 2026-Sep-19 00:00:00.0000, -1.795100575311723E+08, 2.989358817680131E+08, 2.098952239493325E+07,
2461309.500000000, A.D. 2026-Sep-26 00:00:00.0000, -1.899426970029374E+08, 2.919775200387428E+08, 2.283886111435315E+07,
2461316.500000000, A.D. 2026-Oct-03 00:00:00.0000, -2.001587179915324E+08, 2.846860800641165E+08, 2.466212998956998E+07,
2461323.500000000, A.D. 2026-Oct-10 00:00:00.0000, -2.101460895510630E+08, 2.770693504908334E+08, 2.645720169366859E+07,
2461330.500000000, A.D. 2026-Oct-17 00:00:00.0000, -2.198931321417870E+08, 2.691356886654465E+08, 2.822199054711485E+07,
2461337.500000000, A.D. 2026-Oct-24 00:00:00.0000, -2.293885513181104E+08, 2.608939995712422E+08, 2.995445844695881E+07,
2461344.500000000, A.D. 2026-Oct-31 00:00:00.0000, -2.386214696947378E+08, 2.523537120052036E+08, 3.165262057856795E+07,
2461351.500000000, A.D. 2026-Nov-07 00:00:00.0000, -2.475814566167930E+08, 2.435247522296990E+08, 3.331455084305613E+07,
2461358.500000000, A.D. 2026-Nov-14 00:00:00.0000, -2.562585551171683E+08, 2.344175161717403E+08, 3.493838701511301E+07,
2461365.500000000, A.D. 2026-Nov-21 00:00:00.0000, -2.646433077815584E+08, 2.250428410612516E+08, 3.652233581694169E+07,
2461372.500000000, A.D. 2026-Nov-28 00:00:00.0000, -2.727267823522065E+08, 2.154119737338922E+08, 3.806467772166920E+07,
2461379.500000000, A.D. 2026-Dec-05 00:00:00.0000, -2.805005933017727E+08, 2.055365351876182E+08, 3.956377107152562E+07,
2461386.500000000, A.D. 2026-Dec-12 00:00:00.0000, -2.879569190958719E+08, 1.954284847548665E+08, 4.101805572477430E+07,
2461393.500000000, A.D. 2026-Dec-19 00:00:00.0000, -2.950885169538983E+08, 1.851000841650807E+08, 4.242605638556343E+07,
2461400.500000000, A.D. 2026-Dec-26 00:00:00.0000, -3.018887351978818E+08, 1.745638609076985E+08, 4.378638554424810E+07,
2461407.500000000, A.D. 2027-Jan-02 00:00:00.0000, -3.083515228858067E+08, 1.638325709811197E+08, 4.509774597678702E+07,
2461414.500000000, A.D. 2027-Jan-09 00:00:00.0000, -3.144714366121288E+08, 1.529191613194840E+08, 4.635893278755882E+07,
2461421.500000000, A.D. 2027-Jan-16 00:00:00.0000, -3.202436444670085E+08, 1.418367321687004E+08, 4.756883499022312E+07,
2461428.500000000, A.D. 2027-Jan-23 00:00:00.0000, -3.256639271641598E+08, 1.305984996215223E+08, 4.872643662051712E+07,
2461435.500000000, A.D. 2027-Jan-30 00:00:00.0000, -3.307286762366906E+08, 1.192177584999101E+08, 4.983081736654457E+07,
2461442.500000000, A.D. 2027-Feb-06 00:00:00.0000, -3.354348889917932E+08, 1.077078461493632E+08, 5.088115271779814E+07,
2461449.500000000, A.D. 2027-Feb-13 00:00:00.0000, -3.397801608213976E+08, 9.608210857715926E+07, 5.187671379180232E+07,
2461456.500000000, A.D. 2027-Feb-20 00:00:00.0000, -3.437626773858008E+08, 8.435386833939806E+07, 5.281686701072869E+07,
2461463.500000000, A.D. 2027-Feb-27 00:00:00.0000, -3.473812054392791E+08, 7.253639114112331E+07, 5.370107325987628E+07,
2461470.500000000, A.D. 2027-Mar-06 00:00:00.0000, -3.506350794457054E+08, 6.064285322734981E+07, 5.452888643119065E+07,
2461477.500000000, A.D. 2027-Mar-13 00:00:00.0000, -3.535241857551057E+08, 4.868631173929353E+07, 5.529995168885817E+07,
2461484.500000000, A.D. 2027-Mar-20 00:00:00.0000, -3.560489456556021E+08, 3.667967730105401E+07, 5.601400351754004E+07,
2461491.500000000, A.D. 2027-Mar-27 00:00:00.0000, -3.582102972903532E+08, 2.463568836887790E+07, 5.667086351742614E+07,
2461498.500000000, A.D. 2027-Apr-03 00:00:00.0000, -3.600096764275110E+08, 1.256688735528046E+07, 5.727043795224885E+07,
2461505.500000000, A.D. 2027-Apr-10 00:00:00.0000, -3.614489962117683E+08, 4.855985898926295E+05, 5.781271507602146E+07,
2461512.500000000, A.D. 2027-Apr-17 00:00:00.0000, -3.625306260628043E+08, -1.159609187719601E+07, 5.829776226533024E+07,
2461519.500000000, A.D. 2027-Apr-24 00:00:00.0000, -3.632573698234047E+08, -2.366635468850629E+07, 5.872572297460471E+07,
2461526.500000000, A.D. 2027-May-01 00:00:00.0000, -3.636324430315207E+08, -3.571363379333244E+07, 5.909681351790235E+07,
2461533.500000000, A.D. 2027-May-08 00:00:00.0000, -3.636594491725965E+08, -4.772666054200763E+07, 5.941131973735379E+07,
2461540.500000000, A.D. 2027-May-15 00:00:00.0000, -3.633423565618424E+08, -5.969446434868833E+07, 5.966959379889298E+07,
2461547.500000000, A.D. 2027-May-22 00:00:00.0000, -3.626854775642647E+08, -7.160638256957304E+07, 5.987205107112993E+07,
2461554.500000000, A.D. 2027-May-29 00:00:00.0000, -3.616934469318160E+08, -8.345207112922224E+07, 6.001916668305422E+07,
2461561.500000000, A.D. 2027-Jun-05 00:00:00.0000, -3.603711984928516E+08, -9.522151283339997E+07, 6.011147195661502E+07,
2461568.500000000, A.D. 2027-Jun-12 00:00:00.0000, -3.587239423056369E+08, -1.069050230154095E+08, 6.014955095199374E+07,
2461575.500000000, A.D. 2027-Jun-19 00:00:00.0000, -3.567571427019958E+08, -1.184932535384025E+08, 6.013403709662140E+07,
2461582.500000000, A.D. 2027-Jun-26 00:00:00.0000, -3.544764970286931E+08, -1.299771955060356E+08, 6.006560986737958E+07,
2461589.500000000, A.D. 2027-Jul-03 00:00:00.0000, -3.518879150300161E+08, -1.413481807650188E+08, 5.994499152941643E+07,
2461596.500000000, A.D. 2027-Jul-10 00:00:00.0000, -3.489974988979713E+08, -1.525978822836445E+08, 5.977294394175816E+07,
2461603.500000000, A.D. 2027-Jul-17 00:00:00.0000, -3.458115240060372E+08, -1.637183135387091E+08, 5.955026543423302E+07,
2461610.500000000, A.D. 2027-Jul-24 00:00:00.0000, -3.423364202125685E+08, -1.747018270668415E+08, 5.927778774565970E+07,
2461617.500000000, A.D. 2027-Jul-31 00:00:00.0000, -3.385787533558028E+08, -1.855411120364401E+08, 5.895637301272909E+07,
2461624.500000000, A.D. 2027-Aug-07 00:00:00.0000, -3.345452071655732E+08, -1.962291897778186E+08, 5.858691092844222E+07,
2461631.500000000, A.D. 2027-Aug-14 00:00:00.0000, -3.302425679088195E+08, -2.067594076119787E+08, 5.817031626523733E+07,
2461638.500000000, A.D. 2027-Aug-21 00:00:00.0000, -3.256777111610600E+08, -2.171254344278254E+08, 5.770752643508749E+07,
2461645.500000000, A.D. 2027-Aug-28 00:00:00.0000, -3.208575872789813E+08, -2.273212568863520E+08, 5.719949887361509E+07,
2461652.500000000, A.D. 2027-Sep-04 00:00:00.0000, -3.157892067545298E+08, -2.373411738247575E+08, 5.664720856300075E+07,
2461659.500000000, A.D. 2027-Sep-11 00:00:00.0000, -3.104796268377848E+08, -2.471797895922845E+08, 5.605164576787437E+07,
2461666.500000000, A.D. 2027-Sep-18 00:00:00.0000, -3.049359392829738E+08, -2.568320070353305E+08, 5.541381391814233E+07,
2461673.500000000, A.D. 2027-Sep-25 00:00:00.0000, -2.991652589738849E+08, -2.662930202726845E+08, 5.473472761028948E+07,
2461680.500000000, A.D. 2027-Oct-02 00:00:00.0000, -2.931747133357012E+08, -2.755583072904639E+08, 5.401541072071362E+07,
2461687.500000000, A.D. 2027-Oct-09 00:00:00.0000, -2.869714324882287E+08, -2.846236224125627E+08, 5.325689462577489E+07,
2461694.500000000, A.D. 2027-Oct-16 00:00:00.0000, -2.805625400504049E+08, -2.934849887493694E+08, 5.246021651462708E+07,
2461701.500000000, A.D. 2027-Oct-23 00:00:00.0000, -2.739551443074470E+08, -3.021386906768687E+08, 5.162641776693548E+07,
2461708.500000000, A.D. 2027-Oct-30 00:00:00.0000, -2.671563293379892E+08, -3.105812657802619E+08, 5.075654240794325E+07,
2461715.500000000, A.D. 2027-Nov-06 00:00:00.0000, -2.601731472378926E+08, -3.188094951741778E+08, 4.985163583694564E+07,
2461722.500000000, A.D. 2027-Nov-13 00:00:00.0000, -2.530126133991902E+08, -3.268203943109075E+08, 4.891274383838254E+07,
2461729.500000000, A.D. 2027-Nov-20 00:00:00.0000, -2.456817019152693E+08, -3.346112064942888E+08, 4.794091142737609E+07,
2461736.500000000, A.D. 2027-Nov-27 00:00:00.0000, -2.381873394678302E+08, -3.421793961623350E+08, 4.693718162013310E+07,
2461743.500000000, A.D. 2027-Dec-04 00:00:00.0000, -2.305363996909219E+08, -3.495226410471985E+08, 4.590259438547720E+07,
2461750.500000000, A.D. 2027-Dec-11 00:00:00.0000, -2.227356985330947E+08, -3.566388241955107E+08, 4.483818574480090E+07,
2461757.500000000, A.D. 2027-Dec-18 00:00:00.0000, -2.147919903129042E+08, -3.635260262053131E+08, 4.374498696301860E+07,
2461764.500000000, A.D. 2027-Dec-25 00:00:00.0000, -2.067119642867561E+08, -3.701825176975907E+08, 4.262402381216514E+07,
2461771.500000000, A.D. 2028-Jan-01 00:00:00.0000, -1.985022416602006E+08, -3.766067520221273E+08, 4.147631590118350E+07,
$$EOE